<!DOCUMENT html>
<html>
  <head><title>Comet C/2010 X1 (Elenin) ephemeris</title></head>
  <body onload="init()">
    <noscript>
      Please, turn JavaScript.
    </noscript>
    <pre id="output"></pre>
    <p>Fields: UTC date, equatorial coordinates (Ra and Dec), distance
    (a.e.).
    <p>
      Elements used (<a href="http://scully.cfa.harvard.edu/cgi-bin/returnprepeph.cgi?d=c&amp;o=CK10X010">http://scully.cfa.harvard.edu/cgi-bin/returnprepeph.cgi?d=c&amp;o=CK10X010</a>):
    </p>
<pre>
    C/2010 X1 (Elenin)
Epoch 2011 Aug. 27.0 TT = JDT 2455800.5
T 2011 Sept. 10.7227 TT                                 MPC
q   0.482465             (2000.0)            P               Q
z  -0.000057       Peri.  343.8056      +0.6023511      +0.7980000
 +/-0.000002       Node   323.2267      -0.7287563      +0.5399437
e   1.000028       Incl.    1.8392      -0.3257108      +0.2676879
From 2058 observations 2010 Dec. 10-2011 Aug. 1, mean residual 0".5.
</pre>

    <pre id="output2">
    </pre>

    <script src="../../StarJs.debug.js"></script>
    <script src="comet.js"></script>
  </body>
</html>
